{"type": "FeatureCollection", "features": [ {"type": "Feature", "properties": {"norad_id": 31288, "name": "FENGYUN 1C DEB", "group": "fengyun-1c-debris", "lat": -46.88547917427194, "lon": -45.23389524733771, "alt_km": 581.718048865393, "timestamp": "2025-12-12T05:47:29.052680+00:00", "meta": {"OBJECT_NAME": "FENGYUN 1C DEB", "OBJECT_ID": "1999-025BNW", "EPOCH": "2025-12-11T09:38:33.082656", "MEAN_MOTION": 14.95421799, "ECCENTRICITY": 0.00227112, "INCLINATION": 98.7466, "RA_OF_ASC_NODE": 143.2947, "ARG_OF_PERICENTER": 300.08, "MEAN_ANOMALY": 90.4319, "EPHEMERIS_TYPE": 0, "CLASSIFICATION_TYPE": "U", "NORAD_CAT_ID": 31288, "ELEMENT_SET_NO": 999, "REV_AT_EPOCH": 97537, "BSTAR": 0.011321353, "MEAN_MOTION_DOT": 0.00127924, "MEAN_MOTION_DDOT": 0}, "tle": {"line1": "1 31288U 99025BNW 25345.40177179  .00127924  00000+0  11321-1 0  9995", "line2": "2 31288  98.7466 143.2947 0022711 300.0800  90.4319 14.95421799975376"}}, "geometry": {"type": "Point", "coordinates": [-45.23389524733771, -46.88547917427194]}}, {"type": "Feature", "properties": {"norad_id": 31293, "name": "FENGYUN 1C DEB", "group": "fengyun-1c-debris", "lat": -80.54486216794129, "lon": 111.17996619709145, "alt_km": 711.3854693337644, "timestamp": "2025-12-12T05:47:29.052692+00:00", "meta": {"OBJECT_NAME": "FENGYUN 1C DEB", "OBJECT_ID": "1999-025BPB", "EPOCH": "2025-12-11T06:43:51.182400", "MEAN_MOTION": 14.30811364, "ECCENTRICITY": 0.01253999, "INCLINATION": 98.4229, "RA_OF_ASC_NODE": 353.086, "ARG_OF_PERICENTER": 249.2429, "MEAN_ANOMALY": 109.528, "EPHEMERIS_TYPE": 0, "CLASSIFICATION_TYPE": "U", "NORAD_CAT_ID": 31293, "ELEMENT_SET_NO": 999, "REV_AT_EPOCH": 65223, "BSTAR": 0.00013028256, "MEAN_MOTION_DOT": 3.27e-06, "MEAN_MOTION_DDOT": 0}, "tle": {"line1": "1 31293U 99025BPB 25345.28045350  .00000327  00000+0  13028-3 0  9997", "line2": "2 31293  98.4229 353.0860 0125399 249.2429 109.5280 14.30811364652234"}}, "geometry": {"type": "Point", "coordinates": [111.17996619709145, -80.54486216794129]}}, {"type": "Feature", "properties": {"norad_id": 31294, "name": "FENGYUN 1C DEB", "group": "fengyun-1c-debris", "lat": -3.418167658099875, "lon": -17.61237069079018, "alt_km": 774.7209346826294, "timestamp": "2025-12-12T05:47:29.052701+00:00", "meta": {"OBJECT_NAME": "FENGYUN 1C DEB", "OBJECT_ID": "1999-025BPC", "EPOCH": "2025-12-11T23:01:14.381472", "MEAN_MOTION": 14.15309619, "ECCENTRICITY": 0.00997218, "INCLINATION": 98.5432, "RA_OF_ASC_NODE": 341.6029, "ARG_OF_PERICENTER": 343.3889, "MEAN_ANOMALY": 16.4026, "EPHEMERIS_TYPE": 0, "CLASSIFICATION_TYPE": "U", "NORAD_CAT_ID": 31294, "ELEMENT_SET_NO": 999, "REV_AT_EPOCH": 96842, "BSTAR": 0.00076675882, "MEAN_MOTION_DOT": 1.524e-05, "MEAN_MOTION_DDOT": 0}, "tle": {"line1": "1 31294U 99025BPC 25345.95919423  .00001524  00000+0  76676-3 0  9991", "line2": "2 31294  98.5432 341.6029 0099721 343.3889  16.4026 14.15309619968420"}}, "geometry": {"type": "Point", "coordinates": [-17.61237069079018, -3.418167658099875]}}, {"type": "Feature", "properties": {"norad_id": 31295, "name": "FENGYUN 1C DEB", "group": "fengyun-1c-debris", "lat": -22.842667247573587, "lon": 174.75621202494705, "alt_km": 904.1686031121508, "timestamp": "2025-12-12T05:47:29.052715+00:00", "meta": {"OBJECT_NAME": "FENGYUN 1C DEB", "OBJECT_ID": "1999-025BPD", "EPOCH": "2025-12-11T17:52:04.620288", "MEAN_MOTION": 13.96832363, "ECCENTRICITY": 0.0076724, "INCLINATION": 98.3169, "RA_OF_ASC_NODE": 170.7741, "ARG_OF_PERICENTER": 254.088, "MEAN_ANOMALY": 105.182, "EPHEMERIS_TYPE": 0, "CLASSIFICATION_TYPE": "U", "NORAD_CAT_ID": 31295, "ELEMENT_SET_NO": 999, "REV_AT_EPOCH": 95489, "BSTAR": 0.0002634075, "MEAN_MOTION_DOT": 3.37e-06, "MEAN_MOTION_DDOT": 0}, "tle": {"line1": "1 31295U 99025BPD 25345.74449792  .00000337  00000+0  26341-3 0  9991", "line2": "2 31295  98.3169 170.7741 0076724 254.0880 105.1820 13.96832363954894"}}, "geometry": {"type": "Point", "coordinates": [174.75621202494705, -22.842667247573587]}}, {"type": "Feature", "properties": {"norad_id": 31296, "name": "FENGYUN 1C DEB", "group": "fengyun-1c-debris", "lat": 5.749239761608983, "lon": -99.83734060797795, "alt_km": 670.362160018868, "timestamp": "2025-12-12T05:47:29.052725+00:00", "meta": {"OBJECT_NAME": "FENGYUN 1C DEB", "OBJECT_ID": "1999-025BPE", "EPOCH": "2025-12-11T05:17:02.267232", "MEAN_MOTION": 14.71331339, "ECCENTRICITY": 0.00196835, "INCLINATION": 99.0661, "RA_OF_ASC_NODE": 259.9478, "ARG_OF_PERICENTER": 221.0041, "MEAN_ANOMALY": 138.9683, "EPHEMERIS_TYPE": 0, "CLASSIFICATION_TYPE": "U", "NORAD_CAT_ID": 31296, "ELEMENT_SET_NO": 999, "REV_AT_EPOCH": 97327, "BSTAR": 0.0096808551, "MEAN_MOTION_DOT": 0.0006049, "MEAN_MOTION_DDOT": 0}, "tle": {"line1": "1 31296U 99025BPE 25345.22016513  .00060490  00000+0  96809-2 0  9997", "line2": "2 31296  99.0661 259.9478 0019683 221.0041 138.9683 14.71331339973276"}}, "geometry": {"type": "Point", "coordinates": [-99.83734060797795, 5.749239761608983]}}, {"type": "Feature", "properties": {"norad_id": 31297, "name": "FENGYUN 1C DEB", "group": "fengyun-1c-debris", "lat": 31.40679019734472, "lon": -51.392403520468186, "alt_km": 610.0650970053257, "timestamp": "2025-12-12T05:47:29.052737+00:00", "meta": {"OBJECT_NAME": "FENGYUN 1C DEB", "OBJECT_ID": "1999-025BPF", "EPOCH": "2025-12-11T16:00:29.504160", "MEAN_MOTION": 14.5707148, "ECCENTRICITY": 0.01396678, "INCLINATION": 98.9342, "RA_OF_ASC_NODE": 122.4802, "ARG_OF_PERICENTER": 126.0992, "MEAN_ANOMALY": 250.6018, "EPHEMERIS_TYPE": 0, "CLASSIFICATION_TYPE": "U", "NORAD_CAT_ID": 31297, "ELEMENT_SET_NO": 999, "REV_AT_EPOCH": 99300, "BSTAR": 0.00074755857, "MEAN_MOTION_DOT": 3.789e-05, "MEAN_MOTION_DDOT": 0}, "tle": {"line1": "1 31297U 99025BPF 25345.66700815  .00003789  00000+0  74756-3 0  9997", "line2": "2 31297  98.9342 122.4802 0139667 126.0992 250.6018 14.57071480993009"}}, "geometry": {"type": "Point", "coordinates": [-51.392403520468186, 31.40679019734472]}}, {"type": "Feature", "properties": {"norad_id": 31300, "name": "FENGYUN 1C DEB", "group": "fengyun-1c-debris", "lat": 14.49710056963352, "lon": -111.95113682625797, "alt_km": 852.6643062135054, "timestamp": "2025-12-12T05:47:29.052748+00:00", "meta": {"OBJECT_NAME": "FENGYUN 1C DEB", "OBJECT_ID": "1999-025BPJ", "EPOCH": "2025-12-11T00:45:19.178208", "MEAN_MOTION": 14.1511338, "ECCENTRICITY": 0.00604964, "INCLINATION": 99.5421, "RA_OF_ASC_NODE": 64.2632, "ARG_OF_PERICENTER": 65.0452, "MEAN_ANOMALY": 59.4121, "EPHEMERIS_TYPE": 0, "CLASSIFICATION_TYPE": "U", "NORAD_CAT_ID": 31300, "ELEMENT_SET_NO": 999, "REV_AT_EPOCH": 96150, "BSTAR": 0.0019287436, "MEAN_MOTION_DOT": 3.76e-05, "MEAN_MOTION_DDOT": 0}, "tle": {"line1": "1 31300U 99025BPJ 25345.03147197  .00003760  00000+0  19287-2 0  9997", "line2": "2 31300  99.5421  64.2632 0060496  65.0452  59.4121 14.15113380961509"}}, "geometry": {"type": "Point", "coordinates": [-111.95113682625797, 14.49710056963352]}}, {"type": "Feature", "properties": {"norad_id": 31302, "name": "FENGYUN 1C DEB", "group": "fengyun-1c-debris", "lat": -18.506826963959224, "lon": 31.4258523283548, "alt_km": 799.932307238465, "timestamp": "2025-12-12T05:47:29.052758+00:00", "meta": {"OBJECT_NAME": "FENGYUN 1C DEB", "OBJECT_ID": "1999-025BPL", "EPOCH": "2025-12-05T14:46:32.923776", "MEAN_MOTION": 14.27462928, "ECCENTRICITY": 0.00274625, "INCLINATION": 99.4134, "RA_OF_ASC_NODE": 21.1132, "ARG_OF_PERICENTER": 75.788, "MEAN_ANOMALY": 75.4083, "EPHEMERIS_TYPE": 0, "CLASSIFICATION_TYPE": "U", "NORAD_CAT_ID": 31302, "ELEMENT_SET_NO": 999, "REV_AT_EPOCH": 96256, "BSTAR": 0.0026425456, "MEAN_MOTION_DOT": 6.469e-05, "MEAN_MOTION_DDOT": 0}, "tle": {"line1": "1 31302U 99025BPL 25339.61565884  .00006469  00000+0  26425-2 0  9994", "line2": "2 31302  99.4134  21.1132 0027462  75.7880  75.4083 14.27462928962567"}}, "geometry": {"type": "Point", "coordinates": [31.4258523283548, -18.506826963959224]}}, {"type": "Feature", "properties": {"norad_id": 31303, "name": "FENGYUN 1C DEB", "group": "fengyun-1c-debris", "lat": 76.65012478625592, "lon": -137.33080068402109, "alt_km": 843.6152306935219, "timestamp": "2025-12-12T05:47:29.052768+00:00", "meta": {"OBJECT_NAME": "FENGYUN 1C DEB", "OBJECT_ID": "1999-025BPM", "EPOCH": "2025-12-12T00:12:46.138176", "MEAN_MOTION": 14.1102451, "ECCENTRICITY": 0.00115637, "INCLINATION": 98.7048, "RA_OF_ASC_NODE": 2.2342, "ARG_OF_PERICENTER": 154.1649, "MEAN_ANOMALY": 206.0102, "EPHEMERIS_TYPE": 0, "CLASSIFICATION_TYPE": "U", "NORAD_CAT_ID": 31303, "ELEMENT_SET_NO": 999, "REV_AT_EPOCH": 96308, "BSTAR": 0.00014182065, "MEAN_MOTION_DOT": 2.13e-06, "MEAN_MOTION_DDOT": 0}, "tle": {"line1": "1 31303U 99025BPM 25346.00886734  .00000213  00000+0  14182-3 0  9995", "line2": "2 31303  98.7048   2.2342 0011563 154.1649 206.0102 14.11024510963083"}}, "geometry": {"type": "Point", "coordinates": [-137.33080068402109, 76.65012478625592]}}, {"type": "Feature", "properties": {"norad_id": 31311, "name": "FENGYUN 1C DEB", "group": "fengyun-1c-debris", "lat": 53.18170161018197, "lon": -100.40444899157112, "alt_km": 776.8983411396839, "timestamp": "2025-12-12T05:47:29.052778+00:00", "meta": {"OBJECT_NAME": "FENGYUN 1C DEB", "OBJECT_ID": "1999-025BPP", "EPOCH": "2025-12-11T04:19:12.512352", "MEAN_MOTION": 14.29722723, "ECCENTRICITY": 0.00187827, "INCLINATION": 98.8525, "RA_OF_ASC_NODE": 66.5011, "ARG_OF_PERICENTER": 91.303, "MEAN_ANOMALY": 334.9252, "EPHEMERIS_TYPE": 0, "CLASSIFICATION_TYPE": "U", "NORAD_CAT_ID": 31311, "ELEMENT_SET_NO": 999, "REV_AT_EPOCH": 96199, "BSTAR": 0.0026903693, "MEAN_MOTION_DOT": 6.876e-05, "MEAN_MOTION_DDOT": 0}, "tle": {"line1": "1 31311U 99025BPP 25345.18000593  .00006876  00000+0  26904-2 0  9998", "line2": "2 31311  98.8525  66.5011 0018782  91.3030 334.9252 14.29722723961990"}}, "geometry": {"type": "Point", "coordinates": [-100.40444899157112, 53.18170161018197]}}]}